OBJECT_NAME,OBJECT_ID,EPOCH,MEAN_MOTION,ECCENTRICITY,INCLINATION,RA_OF_ASC_NODE,ARG_OF_PERICENTER,MEAN_ANOMALY,EPHEMERIS_TYPE,CLASSIFICATION_TYPE,NORAD_CAT_ID,ELEMENT_SET_NO,REV_AT_EPOCH,BSTAR,MEAN_MOTION_DOT,MEAN_MOTION_DDOT
IRIDIUM 154,2018-061F,2026-07-02T15:36:38.401344,14.34218200,.00022428,86.3949,50.3402,89.5471,270.5982,0,U,43574,999,41562,.1959064E-4,.75E-6,0
IRIDIUM 163,2018-061G,2026-07-02T13:28:46.477056,14.34217711,.00021799,86.3945,50.2921,84.2717,275.8727,0,U,43575,999,41558,.1621976E-5,.24E-6,0
IRIDIUM 156,2018-061H,2026-07-02T14:32:42.402912,14.34219288,.00020382,86.3944,50.2808,88.0557,272.0873,0,U,43576,999,41558,.65666446E-4,.204E-5,0
IRIDIUM 164,2018-061J,2026-07-02T14:05:18.470976,14.34217605,.00021479,86.3945,50.3291,89.7275,270.4167,0,U,43577,999,41562,-.1579258E-5,.15E-6,0
IRIDIUM 159,2018-061K,2026-07-02T08:18:14.493312,14.34217774,.00022172,86.3946,50.3666,84.8141,275.3308,0,U,43578,999,41555,.7139625E-5,.4E-6,0
IRIDIUM 180,2019-002A,2026-07-02T09:57:58.938336,14.34217556,.00021324,86.3974,347.2308,89.6830,270.4610,0,U,43922,999,39117,-.4001242E-5,.9E-7,0
IRIDIUM 176,2019-002B,2026-07-02T10:50:31.415136,14.72235136,.00023792,86.6099,347.1566,88.2252,271.9237,0,U,43923,999,40149,.13472031E-3,.874E-5,0
IRIDIUM 168,2019-002C,2026-07-02T11:29:18.571488,14.34218174,.00022218,86.3983,347.2818,90.1904,269.9546,0,U,43924,999,39116,.44031448E-4,.143E-5,0
IRIDIUM 173,2019-002D,2026-07-02T11:11:02.948640,14.34217482,.00020362,86.3975,347.1757,89.4862,270.6567,0,U,43925,999,39114,-.6312349E-5,.2E-7,0
IRIDIUM 169,2019-002E,2026-07-02T11:38:19.862304,14.38610890,.00016411,86.4218,18.7960,89.3531,270.7855,0,U,43926,999,39242,.97475894E-4,.318E-5,0
IRIDIUM 172,2019-002F,2026-07-02T11:01:54.954048,14.34217649,.00022203,86.3978,347.1860,89.3387,270.8063,0,U,43927,999,39115,.1983672E-4,.75E-6,0
IRIDIUM 175,2019-002G,2026-07-02T12:36:06.842016,14.43621518,.0004348,86.4519,284.1098,141.1023,219.0492,0,U,43928,999,40119,.10624534E-3,.38E-5,0
IRIDIUM 171,2019-002H,2026-07-02T10:34:30.941760,14.34217725,.00021417,86.3986,347.5016,94.0362,266.1078,0,U,43929,999,39114,.2382646E-5,.26E-6,0
IRIDIUM 170,2019-002J,2026-07-02T10:59:24.929952,14.72235628,.00024252,86.6098,347.1563,84.7852,275.3642,0,U,43930,999,40150,.13390767E-3,.869E-5,0
IRIDIUM 167,2019-002K,2026-07-02T10:25:22.879776,14.34218004,.0002065,86.3978,347.2190,98.3039,261.8391,0,U,43931,999,39114,.12614587E-4,.55E-6,0
IRIDIUM 181,2023-068S,2026-07-02T03:37:20.076384,14.43314274,.00024377,86.4484,50.5342,86.2138,273.9341,0,U,56726,999,16459,.95509739E-4,.342E-5,0
IRIDIUM 177,2023-068T,2026-07-02T11:11:15.480096,14.80012581,.00020866,86.1977,321.5359,91.0511,269.0949,0,U,56727,999,16862,.16208682E-3,.1252E-4,0
IRIDIUM 174,2023-068U,2026-07-02T10:41:36.115296,14.72243716,.00022516,86.6107,347.3104,80.4321,279.7151,0,U,56728,999,16826,.14240601E-3,.922E-5,0
IRIDIUM 178,2023-068V,2026-07-02T06:03:16.971264,14.80047592,.00024876,86.6532,19.0630,85.4914,274.6592,0,U,56729,999,16859,.14776432E-3,.1144E-4,0
IRIDIUM 179,2023-068W,2026-07-02T02:40:56.210880,14.80064129,.00024353,86.6765,28.1459,87.7658,272.3842,0,U,56730,999,16857,.13333304E-3,.1035E-4,0
