IRIDIUM 154             
1 43574U 18061F   26183.65044446  .00000075  00000+0  19591-4 0  9992
2 43574  86.3949  50.3402 0002242  89.5471 270.5982 14.34218200415628
IRIDIUM 163             
1 43575U 18061G   26183.56164904  .00000024  00000+0  16220-5 0  9996
2 43575  86.3945  50.2921 0002179  84.2717 275.8727 14.34217711415580
IRIDIUM 156             
1 43576U 18061H   26183.60604633  .00000204  00000+0  65666-4 0  9997
2 43576  86.3944  50.2808 0002038  88.0557 272.0873 14.34219288415584
IRIDIUM 164             
1 43577U 18061J   26183.58701934  .00000015  00000+0 -15793-5 0  9995
2 43577  86.3945  50.3291 0002147  89.7275 270.4167 14.34217605415623
IRIDIUM 159             
1 43578U 18061K   26183.34600108  .00000040  00000+0  71396-5 0  9999
2 43578  86.3946  50.3666 0002217  84.8141 275.3308 14.34217774415557
IRIDIUM 180             
1 43922U 19002A   26183.41526549  .00000009  00000+0 -40012-5 0  9999
2 43922  86.3974 347.2308 0002132  89.6830 270.4610 14.34217556391177
IRIDIUM 176             
1 43923U 19002B   26183.45175249  .00000874  00000+0  13472-3 0  9998
2 43923  86.6099 347.1566 0002379  88.2252 271.9237 14.72235136401494
IRIDIUM 168             
1 43924U 19002C   26183.47868717  .00000143  00000+0  44031-4 0  9995
2 43924  86.3983 347.2818 0002221  90.1904 269.9546 14.34218174391160
IRIDIUM 173             
1 43925U 19002D   26183.46600635  .00000002  00000+0 -63123-5 0  9997
2 43925  86.3975 347.1757 0002036  89.4862 270.6567 14.34217482391142
IRIDIUM 169             
1 43926U 19002E   26183.48495211  .00000318  00000+0  97476-4 0  9998
2 43926  86.4218  18.7960 0001641  89.3531 270.7855 14.38610890392421
IRIDIUM 172             
1 43927U 19002F   26183.45966382  .00000075  00000+0  19837-4 0  9993
2 43927  86.3978 347.1860 0002220  89.3387 270.8063 14.34217649391157
IRIDIUM 175             
1 43928U 19002G   26183.52507919  .00000380  00000+0  10625-3 0  9993
2 43928  86.4519 284.1098 0004348 141.1023 219.0492 14.43621518401191
IRIDIUM 171             
1 43929U 19002H   26183.44063590  .00000026  00000+0  23826-5 0  9993
2 43929  86.3986 347.5016 0002141  94.0362 266.1078 14.34217725391141
IRIDIUM 170             
1 43930U 19002J   26183.45792743  .00000869  00000+0  13391-3 0  9994
2 43930  86.6098 347.1563 0002425  84.7852 275.3642 14.72235628401503
IRIDIUM 167             
1 43931U 19002K   26183.43429259  .00000055  00000+0  12615-4 0  9998
2 43931  86.3978 347.2190 0002065  98.3039 261.8391 14.34218004391149
IRIDIUM 181             
1 56726U 23068S   26183.15092681  .00000342  00000+0  95510-4 0  9999
2 56726  86.4484  50.5342 0002437  86.2138 273.9341 14.43314274164592
IRIDIUM 177             
1 56727U 23068T   26183.46615139  .00001252  00000+0  16209-3 0  9991
2 56727  86.1977 321.5359 0002086  91.0511 269.0949 14.80012581168620
IRIDIUM 174             
1 56728U 23068U   26183.44555689  .00000922  00000+0  14241-3 0  9990
2 56728  86.6107 347.3104 0002251  80.4321 279.7151 14.72243716168260
IRIDIUM 178             
1 56729U 23068V   26183.25227976  .00001144  00000+0  14776-3 0  9995
2 56729  86.6532  19.0630 0002487  85.4914 274.6592 14.80047592168596
IRIDIUM 179             
1 56730U 23068W   26183.11176170  .00001035  00000+0  13333-3 0  9998
2 56730  86.6765  28.1459 0002435  87.7658 272.3842 14.80064129168575
